SL-16 R/B               
1 25407U 98045B   26078.32052867  .00000106  00000+0  77526-4 0  9997
2 25407  71.0119 161.3222 0007393 352.8085   7.2931 14.16195043428469
ISS (ZARYA)             
1 25544U 98067A   26078.12958500  .00009105  00000+0  17698-3 0  9991
2 25544  51.6344  25.6919 0006229 207.4819 152.5840 15.48370465557798
CZ-4B R/B               
1 25732U 99025C   26078.11831500  .00000037  00000+0  38916-4 0  9996
2 25732  98.6606 122.1758 0036292 319.1028  98.9129 14.18267189389508
OKEAN-O                 
1 25860U 99039A   26078.18258847  .00000594  00000+0  84722-4 0  9991
2 25860  97.9422 137.9767 0001001  75.7660 284.3663 14.80350428435794
SL-16 R/B               
1 25861U 99039B   26078.15352227  .00000489  00000+0  68761-4 0  9994
2 25861  97.9944 137.2351 0013864 222.8249 137.1885 14.81744191438265
DELTA 2 R/B             
1 25876U 99041E   26078.21103943  .00000510  00000+0  12152-3 0  9996
2 25876  51.7608 263.2469 0502585  16.5164 345.1493 14.11862874364371
HELIOS 1B               
1 25977U 99064A   26078.26447851  .00001476  00000+0  16826-3 0  9991
2 25977  98.1686 340.7888 0002247  61.6317 298.5124 14.87735155686688
TERRA                   
1 25994U 99068A   26078.23084544  .00000368  00000+0  84122-4 0  9991
2 25994  97.9573 131.3002 0003240 130.9793 269.2014 14.61024517396476
SL-16 R/B               
1 26070U 00006B   26078.26780130 -.00000125  00000+0 -39105-4 0  9992
2 26070  71.0004  77.6957 0016253 175.2757 184.8522 14.15823696349912
TITAN 4B R/B            
1 26474U 00047B   26078.23738146  .00003523  00000+0  22284-3 0  9994
2 26474  67.9913  13.6609 0039039  24.0786 336.2177 15.09653086394352
ENVISAT                 
1 27386U 02009A   26078.29694702  .00000097  00000+0  45277-4 0  9993
2 27386  98.3745  31.6664 0001300  82.3639  82.8751 14.39040268260551
IDEFIX & ARIANE 42P R/B 
1 27422U 02021B   26078.28463535  .00000242  00000+0  10828-3 0  9990
2 27422  98.5881  16.7768 0012132 154.1226 206.0566 14.31032563245399
